{"fetched_at":"2026-03-30T06:02:59Z","count":15439,"tles":[{"name":"STARLINK-34692","line1":"1 65759U 25216AB  26087.71813594  .00024856  00000+0  84848-3 0  9998","line2":"2 65759  53.1577 244.7343 0000821  52.3040 307.8035 15.30201854 29415","category":"Starlink"}]}